CCSDS_OMM_VERS = 2.0
CREATION_DATE  = 
ORIGINATOR     = 

OBJECT_NAME    = ALOS-2
OBJECT_ID      = 2014-029A
CENTER_NAME    = EARTH
REF_FRAME      = TEME
TIME_SYSTEM    = UTC
MEAN_ELEMENT_THEORY = SGP/SGP4

EPOCH          = 2025-11-10T06:42:06.725664
MEAN_MOTION    = 14.79460506
ECCENTRICITY   = .0001356
INCLINATION    = 97.9230
RA_OF_ASC_NODE = 49.5868
ARG_OF_PERICENTER = 95.9567
MEAN_ANOMALY   = 264.1799

EPHEMERIS_TYPE = 0
CLASSIFICATION_TYPE = U
NORAD_CAT_ID   = 39766
ELEMENT_SET_NO = 999
REV_AT_EPOCH   = 61921
BSTAR          = .63066E-3
MEAN_MOTION_DOT = .466E-4
MEAN_MOTION_DDOT = 0

CCSDS_OMM_VERS = 2.0
CREATION_DATE  = 
ORIGINATOR     = 

OBJECT_NAME    = YAOGAN-29
OBJECT_ID      = 2015-069A
CENTER_NAME    = EARTH
REF_FRAME      = TEME
TIME_SYSTEM    = UTC
MEAN_ELEMENT_THEORY = SGP/SGP4

EPOCH          = 2025-11-08T21:04:11.532864
MEAN_MOTION    = 14.82824393
ECCENTRICITY   = .000237
INCLINATION    = 98.0254
RA_OF_ASC_NODE = 335.9349
ARG_OF_PERICENTER = 54.9394
MEAN_ANOMALY   = 305.2042

EPHEMERIS_TYPE = 0
CLASSIFICATION_TYPE = U
NORAD_CAT_ID   = 41038
ELEMENT_SET_NO = 999
REV_AT_EPOCH   = 53797
BSTAR          = .98611E-4
MEAN_MOTION_DOT = .744E-5
MEAN_MOTION_DDOT = 0

CCSDS_OMM_VERS = 2.0
CREATION_DATE  = 
ORIGINATOR     = 

OBJECT_NAME    = ASTRO-H (HITOMI)
OBJECT_ID      = 2016-012A
CENTER_NAME    = EARTH
REF_FRAME      = TEME
TIME_SYSTEM    = UTC
MEAN_ELEMENT_THEORY = SGP/SGP4

EPOCH          = 2025-11-08T16:41:05.021664
MEAN_MOTION    = 15.09039436
ECCENTRICITY   = .0009891
INCLINATION    = 31.0004
RA_OF_ASC_NODE = 56.7916
ARG_OF_PERICENTER = 195.4971
MEAN_ANOMALY   = 164.5365

EPHEMERIS_TYPE = 0
CLASSIFICATION_TYPE = U
NORAD_CAT_ID   = 41337
ELEMENT_SET_NO = 999
REV_AT_EPOCH   = 53393
BSTAR          = .30982E-3
MEAN_MOTION_DOT = .5123E-4
MEAN_MOTION_DDOT = 0

CCSDS_OMM_VERS = 2.0
CREATION_DATE  = 
ORIGINATOR     = 

OBJECT_NAME    = HXMT (HUIYAN)
OBJECT_ID      = 2017-034A
CENTER_NAME    = EARTH
REF_FRAME      = TEME
TIME_SYSTEM    = UTC
MEAN_ELEMENT_THEORY = SGP/SGP4

EPOCH          = 2025-11-08T12:42:58.081824
MEAN_MOTION    = 15.15681693
ECCENTRICITY   = .0033167
INCLINATION    = 43.0155
RA_OF_ASC_NODE = 329.3951
ARG_OF_PERICENTER = 191.6377
MEAN_ANOMALY   = 168.3707

EPHEMERIS_TYPE = 0
CLASSIFICATION_TYPE = U
NORAD_CAT_ID   = 42758
ELEMENT_SET_NO = 999
REV_AT_EPOCH   = 46414
BSTAR          = .43428E-3
MEAN_MOTION_DOT = .8303E-4
MEAN_MOTION_DDOT = 0

CCSDS_OMM_VERS = 2.0
CREATION_DATE  = 
ORIGINATOR     = 

OBJECT_NAME    = CZ-2C R/B
OBJECT_ID      = 2018-054D
CENTER_NAME    = EARTH
REF_FRAME      = TEME
TIME_SYSTEM    = UTC
MEAN_ELEMENT_THEORY = SGP/SGP4

EPOCH          = 2025-11-08T15:48:02.121696
MEAN_MOTION    = 15.66722844
ECCENTRICITY   = .0024352
INCLINATION    = 35.1362
RA_OF_ASC_NODE = 50.7102
ARG_OF_PERICENTER = 172.9008
MEAN_ANOMALY   = 187.2071

EPHEMERIS_TYPE = 0
CLASSIFICATION_TYPE = U
NORAD_CAT_ID   = 43521
ELEMENT_SET_NO = 999
REV_AT_EPOCH   = 40969
BSTAR          = .10211E-2
MEAN_MOTION_DOT = .114568E-2
MEAN_MOTION_DDOT = 0

CCSDS_OMM_VERS = 2.0
CREATION_DATE  = 
ORIGINATOR     = 

OBJECT_NAME    = SAOCOM 1A
OBJECT_ID      = 2018-076A
CENTER_NAME    = EARTH
REF_FRAME      = TEME
TIME_SYSTEM    = UTC
MEAN_ELEMENT_THEORY = SGP/SGP4

EPOCH          = 2025-11-08T20:22:46.610976
MEAN_MOTION    = 14.82154700
ECCENTRICITY   = .0001349
INCLINATION    = 97.8868
RA_OF_ASC_NODE = 137.7623
ARG_OF_PERICENTER = 91.4277
MEAN_ANOMALY   = 268.7091

EPHEMERIS_TYPE = 0
CLASSIFICATION_TYPE = U
NORAD_CAT_ID   = 43641
ELEMENT_SET_NO = 999
REV_AT_EPOCH   = 38346
BSTAR          = .10606E-3
MEAN_MOTION_DOT = .792E-5
MEAN_MOTION_DDOT = 0

CCSDS_OMM_VERS = 2.0
CREATION_DATE  = 
ORIGINATOR     = 

OBJECT_NAME    = H-2A R/B
OBJECT_ID      = 2018-084L
CENTER_NAME    = EARTH
REF_FRAME      = TEME
TIME_SYSTEM    = UTC
MEAN_ELEMENT_THEORY = SGP/SGP4

EPOCH          = 2025-11-08T18:20:10.519296
MEAN_MOTION    = 15.35692558
ECCENTRICITY   = .0029236
INCLINATION    = 98.8801
RA_OF_ASC_NODE = 139.8471
ARG_OF_PERICENTER = 81.5483
MEAN_ANOMALY   = 278.9068

EPHEMERIS_TYPE = 0
CLASSIFICATION_TYPE = U
NORAD_CAT_ID   = 43682
ELEMENT_SET_NO = 999
REV_AT_EPOCH   = 38718
BSTAR          = .74211E-3
MEAN_MOTION_DOT = .26078E-3
MEAN_MOTION_DDOT = 0

CCSDS_OMM_VERS = 2.0
CREATION_DATE  = 
ORIGINATOR     = 

OBJECT_NAME    = SAOCOM 1B
OBJECT_ID      = 2020-059A
CENTER_NAME    = EARTH
REF_FRAME      = TEME
TIME_SYSTEM    = UTC
MEAN_ELEMENT_THEORY = SGP/SGP4

EPOCH          = 2025-11-08T19:30:36.262080
MEAN_MOTION    = 14.82161988
ECCENTRICITY   = .0001478
INCLINATION    = 97.8856
RA_OF_ASC_NODE = 136.8290
ARG_OF_PERICENTER = 88.3207
MEAN_ANOMALY   = 271.8175

EPHEMERIS_TYPE = 0
CLASSIFICATION_TYPE = U
NORAD_CAT_ID   = 46265
ELEMENT_SET_NO = 999
REV_AT_EPOCH   = 28084
BSTAR          = .1056E-3
MEAN_MOTION_DOT = .789E-5
MEAN_MOTION_DDOT = 0

CCSDS_OMM_VERS = 2.0
CREATION_DATE  = 
ORIGINATOR     = 

OBJECT_NAME    = CSS (TIANHE)
OBJECT_ID      = 2021-035A
CENTER_NAME    = EARTH
REF_FRAME      = TEME
TIME_SYSTEM    = UTC
MEAN_ELEMENT_THEORY = SGP/SGP4

EPOCH          = 2025-11-08T19:57:59.760288
MEAN_MOTION    = 15.60711560
ECCENTRICITY   = .0005261
INCLINATION    = 41.4657
RA_OF_ASC_NODE = 222.5840
ARG_OF_PERICENTER = 347.1900
MEAN_ANOMALY   = 12.8804

EPHEMERIS_TYPE = 0
CLASSIFICATION_TYPE = U
NORAD_CAT_ID   = 48274
ELEMENT_SET_NO = 999
REV_AT_EPOCH   = 25873
BSTAR          = .49295E-3
MEAN_MOTION_DOT = .42043E-3
MEAN_MOTION_DDOT = 0

CCSDS_OMM_VERS = 2.0
CREATION_DATE  = 
ORIGINATOR     = 

OBJECT_NAME    = COSMOS 2550
OBJECT_ID      = 2021-056A
CENTER_NAME    = EARTH
REF_FRAME      = TEME
TIME_SYSTEM    = UTC
MEAN_ELEMENT_THEORY = SGP/SGP4

EPOCH          = 2025-11-07T17:01:48.281376
MEAN_MOTION    = 15.33832179
ECCENTRICITY   = .00083741
INCLINATION    = 67.1420
RA_OF_ASC_NODE = 49.9474
ARG_OF_PERICENTER = 269.6129
MEAN_ANOMALY   = 90.4066

EPHEMERIS_TYPE = 0
CLASSIFICATION_TYPE = U
NORAD_CAT_ID   = 48865
ELEMENT_SET_NO = 999
REV_AT_EPOCH   = 24475
BSTAR          = .1341734E-5
MEAN_MOTION_DOT = -.148E-5
MEAN_MOTION_DDOT = 0

CCSDS_OMM_VERS = 2.0
CREATION_DATE  = 
ORIGINATOR     = 

OBJECT_NAME    = CZ-2C R/B
OBJECT_ID      = 2022-058K
CENTER_NAME    = EARTH
REF_FRAME      = TEME
TIME_SYSTEM    = UTC
MEAN_ELEMENT_THEORY = SGP/SGP4

EPOCH          = 2025-11-08T18:34:15.665952
MEAN_MOTION    = 15.46136923
ECCENTRICITY   = .0049386
INCLINATION    = 50.1909
RA_OF_ASC_NODE = 216.4635
ARG_OF_PERICENTER = 57.2388
MEAN_ANOMALY   = 303.3324

EPHEMERIS_TYPE = 0
CLASSIFICATION_TYPE = U
NORAD_CAT_ID   = 52794
ELEMENT_SET_NO = 999
REV_AT_EPOCH   = 19137
BSTAR          = .72777E-3
MEAN_MOTION_DOT = .37809E-3
MEAN_MOTION_DDOT = 0

CCSDS_OMM_VERS = 2.0
CREATION_DATE  = 
ORIGINATOR     = 

OBJECT_NAME    = GSLV R/B
OBJECT_ID      = 2022-138AN
CENTER_NAME    = EARTH
REF_FRAME      = TEME
TIME_SYSTEM    = UTC
MEAN_ELEMENT_THEORY = SGP/SGP4

EPOCH          = 2025-11-08T16:11:49.560288
MEAN_MOTION    = 14.95852637
ECCENTRICITY   = .0019565
INCLINATION    = 87.3854
RA_OF_ASC_NODE = 206.8740
ARG_OF_PERICENTER = 227.1296
MEAN_ANOMALY   = 132.8293

EPHEMERIS_TYPE = 0
CLASSIFICATION_TYPE = U
NORAD_CAT_ID   = 54149
ELEMENT_SET_NO = 999
REV_AT_EPOCH   = 16583
BSTAR          = .44251E-3
MEAN_MOTION_DOT = .4988E-4
MEAN_MOTION_DDOT = 0

CCSDS_OMM_VERS = 2.0
CREATION_DATE  = 
ORIGINATOR     = 

OBJECT_NAME    = XRISM
OBJECT_ID      = 2023-137A
CENTER_NAME    = EARTH
REF_FRAME      = TEME
TIME_SYSTEM    = UTC
MEAN_ELEMENT_THEORY = SGP/SGP4

EPOCH          = 2025-11-08T09:31:23.625408
MEAN_MOTION    = 15.09800453
ECCENTRICITY   = .0008202
INCLINATION    = 31.0034
RA_OF_ASC_NODE = 347.1931
ARG_OF_PERICENTER = 257.7990
MEAN_ANOMALY   = 102.1729

EPHEMERIS_TYPE = 0
CLASSIFICATION_TYPE = U
NORAD_CAT_ID   = 57800
ELEMENT_SET_NO = 999
REV_AT_EPOCH   = 11943
BSTAR          = .49583E-3
MEAN_MOTION_DOT = .8313E-4
MEAN_MOTION_DDOT = 0

CCSDS_OMM_VERS = 2.0
CREATION_DATE  = 
ORIGINATOR     = 

OBJECT_NAME    = ACS3
OBJECT_ID      = 2024-077B
CENTER_NAME    = EARTH
REF_FRAME      = TEME
TIME_SYSTEM    = UTC
MEAN_ELEMENT_THEORY = SGP/SGP4

EPOCH          = 2025-11-08T11:52:49.200096
MEAN_MOTION    = 13.83299388
ECCENTRICITY   = .0047383
INCLINATION    = 97.3199
RA_OF_ASC_NODE = 275.6930
ARG_OF_PERICENTER = 28.8276
MEAN_ANOMALY   = 331.5487

EPHEMERIS_TYPE = 0
CLASSIFICATION_TYPE = U
NORAD_CAT_ID   = 59588
ELEMENT_SET_NO = 999
REV_AT_EPOCH   = 7740
BSTAR          = .18888E-1
MEAN_MOTION_DOT = .20946E-3
MEAN_MOTION_DDOT = 0

